0 ARIANE 5 DEB (SYLDA)
1 33277U 08038D   13282.70177642  .00008395  00000-0  30392-2 0  3214
2 33277 002.3388 287.1138 6627536 179.2591 223.9579 03.12185235 48556
0 ARIANE 5 DEB (SYLDA)
1 33277U 08038D   13283.34870784  .00008290  00000-0  29890-2 0  3228
2 33277 002.3391 286.7235 6627534 180.0474 230.9383 03.12196609 48571
0 ARIANE 5 DEB (SYLDA)
1 33277U 08038D   13285.71909409  .00008467  00000-0  30309-2 0  3232
2 33277 002.3363 285.2824 6627097 182.9129 015.0689 03.12233730 48646
0 ARIANE 5 DEB (SYLDA)
1 33277U 08038D   13287.29739258  .00009335  00000-0  33479-2 0  3247
2 33277 002.3317 284.3103 6626608 184.8336 349.1766 03.12262437 48691
0 ARIANE 5 DEB (SYLDA)
1 33277U 08038D   13287.63846174  .00010253  00000-0  36750-2 0  3258
2 33277 002.3313 284.1021 6626533 185.2471 012.5747 03.12274721 48707
0 ARIANE 5 DEB (SYLDA)
1 33277U 08038D   13288.25570059  .00011013  00000-0  39464-2 0  3264
2 33277 002.3304 283.7247 6626409 186.0003 346.4450 03.12291666 48723
0 ARIANE 5 DEB (SYLDA)
1 33277U 08038D   13289.38834880  .00009851  00000-0  35454-2 0  3277
2 33277 002.3286 283.0313 6626039 187.3691 179.8283 03.12320263 48767
0 ARIANE 5 DEB (SYLDA)
1 33277U 08038D   13290.31979312  .00009695  00000-0  32903-2 0  3296
2 33277 002.3278 282.0175 6628057 188.9316 147.1537 03.12333910 48781
0 ARIANE 5 DEB (SYLDA)
1 33277U 08038D   13290.41777382  .00010562  00000-0  38173-2 0  3289
2 33277 002.3277 282.4016 6625915 188.6126 257.2738 03.12334210 48795
0 ARIANE 5 DEB (SYLDA)
1 33277U 08038D   13292.26651794  .00010333  00000-0  37659-2 0  3297
2 33277 002.3250 281.2664 6625672 190.8617 176.0763 03.12367776 48858
0 ARIANE 5 DEB (SYLDA)
1 33277U 08038D   13293.26746183  .00009996  00000-0  36640-2 0  3309
2 33277 002.3236 280.6510 6625508 192.0815 221.6680 03.12388982 48887
0 ARIANE 5 DEB (SYLDA)
1 33277U 08038D   13294.34277479  .00009275  00000-0  34291-2 0  3317
2 33277 002.3216 279.9839 6625232 193.4007 350.9485 03.12415625 48910
0 ARIANE 5 DEB (SYLDA)
1 33277U 08038D   13295.29793446  .00009951  00000-0  36937-2 0  3320
2 33277 002.3202 279.3950 6625017 194.5658 345.1869 03.12438261 48944
0 ARIANE 5 DEB (SYLDA)
1 33277U 08038D   13295.60178994  .00010383  00000-0  38605-2 0  3336
2 33277 002.3197 279.2072 6624964 194.9328 326.9560 03.12438963 48954
